KUIPER-00079            
1 64826U 25151L   25229.91670139 -.00018048  00000+0 -63438-3 0  9995
2 64826  51.8791 130.3742 0004664 259.9962 239.4303 15.28286324  4549
KUIPER-00080            
1 64827U 25151M   25229.91670139 -.00018232  00000+0 -60281-3 0  9994
2 64827  51.8791 130.4088 0002891 287.4419 218.3701 15.30276836  5153
KUIPER-00082            
1 64828U 25151N   25229.93302327  .00032811  00000+0  92300-3 0  9992
2 64828  51.8776 130.0485 0005349 259.5521 100.4862 15.36178431  5011
KUIPER-00083            
1 64829U 25151P   25229.87611482  .00027087  00000+0  77335-3 0  9991
2 64829  51.8769 130.4163 0005538 264.2586  95.7769 15.35814815  6199
KUIPER-00084            
1 64830U 25151Q   25229.91670139 -.00018232  00000+0 -90196-3 0  9996
2 64830  51.8887 131.6527 0006956 249.9079 327.0609 15.16799844  4736
KUIPER-00085            
1 64831U 25151R   25229.93033568  .00029653  00000+0  83159-3 0  9996
2 64831  51.8787 130.0372 0006067 255.6212 104.4101 15.36323278  5015
KUIPER-00086            
1 64832U 25151S   25229.91670139 -.00008408  00000+0 -23850-3 0  9995
2 64832  51.8778 130.2758 0005837 270.2026 286.3074 15.34270461  4589
KUIPER-00087            
1 64833U 25151T   25229.93523706  .00032884  00000+0  92983-3 0  9991
2 64833  51.8779 130.0692 0005421 268.3484  91.6881 15.36016269  5019
